{
    "links": {
        "self": "http://www.neowsapp.com/rest/v1/neo/3629116?api_key=iIulBulltgU6a56xZRHN4H3l9WmuAYTsLGpBGhQ2"
    },
    "id": "3629116",
    "neo_reference_id": "3629116",
    "name": "(2013 ES)",
    "designation": "2013 ES",
    "nasa_jpl_url": "http://ssd.jpl.nasa.gov/sbdb.cgi?sstr=3629116",
    "absolute_magnitude_h": 25.5,
    "estimated_diameter": {
        "kilometers": {
            "estimated_diameter_min": 0.0211132445,
            "estimated_diameter_max": 0.0472106499
        },
        "meters": {
            "estimated_diameter_min": 21.113244479,
            "estimated_diameter_max": 47.2106498806
        },
        "miles": {
            "estimated_diameter_min": 0.0131191578,
            "estimated_diameter_max": 0.0293353287
        },
        "feet": {
            "estimated_diameter_min": 69.2691770164,
            "estimated_diameter_max": 154.8905885541
        }
    },
    "is_potentially_hazardous_asteroid": false,
    "close_approach_data": [
        {
            "close_approach_date": "2013-03-01",
            "close_approach_date_full": "2013-Mar-01 17:16",
            "epoch_date_close_approach": 1362158160000,
            "relative_velocity": {
                "kilometers_per_second": "8.1426304641",
                "kilometers_per_hour": "29313.4696707833",
                "miles_per_hour": "18214.2500851597"
            },
            "miss_distance": {
                "astronomical": "0.0274641698",
                "lunar": "10.6835620522",
                "kilometers": "4108581.303398326",
                "miles": "2552954.0398798588"
            },
            "orbiting_body": "Earth"
        }
    ],
    "orbital_data": {
        "orbit_id": "8",
        "orbit_determination_date": "2017-04-06 08:46:37",
        "first_observation_date": "2013-03-03",
        "last_observation_date": "2013-03-22",
        "data_arc_in_days": 19,
        "observations_used": 49,
        "orbit_uncertainty": "8",
        "minimum_orbit_intersection": ".0269593",
        "jupiter_tisserand_invariant": "3.018",
        "epoch_osculation": "2456359.5",
        "eccentricity": ".6318792294469658",
        "semi_major_axis": "2.747924038690154",
        "inclination": "3.701821046572654",
        "ascending_node_longitude": "169.9875031316661",
        "orbital_period": "1663.816825363781",
        "perihelion_distance": "1.011567914543825",
        "perihelion_argument": "342.0315438167137",
        "aphelion_distance": "4.484280162836482",
        "perihelion_time": "2456346.027488975119",
        "mean_anomaly": "2.915046833894543",
        "mean_motion": ".2163699720498311",
        "equinox": "J2000",
        "orbit_class": {
            "orbit_class_type": "APO",
            "orbit_class_description": "Near-Earth asteroid orbits which cross the Earth’s orbit similar to that of 1862 Apollo",
            "orbit_class_range": "a (semi-major axis) > 1.0 AU; q (perihelion) < 1.017 AU"
        }
    },
    "is_sentry_object": false
}